NORAD_CAT_ID,OBJECT_NAME,OBJECT_TYPE,EPOCH,MEAN_MOTION,ECCENTRICITY,INCLINATION,RA_OF_ASC_NODE,ARG_OF_PERICENTER,MEAN_ANOMALY,BSTAR,MEAN_MOTION_DOT,MEAN_MOTION_DDOT,TLE_LINE0,TLE_LINE1,TLE_LINE2,SEMIMAJOR_AXIS,PERIOD,APOGEE,PERIGEE,DECAYED
52552.0,STARLINK-3966,PAYLOAD,2023-04-28 06:16:08,15.08240895,0.0001227,53.2145,146.7265,115.2767,244.8352,-0.0042877,-0.00066793,0.0,0 STARLINK-3966,1 52552U 22051V   23118.26121275 -.00066793  00000-0 -42877-2 0  9993,2 52552  53.2145 146.7265 0001227 115.2767 244.8352 15.08240895 53540,6919.712,95.475,542.426,540.728,0.0
52552.0,STARLINK-3966,PAYLOAD,2023-04-28 09:26:56,15.08313921,0.0002152,53.2146,146.132,154.0367,206.0733,-0.0027393,-0.00043005,0.0,0 STARLINK-3966,1 52552U 22051V   23118.39370653 -.00043005  00000-0 -27393-2 0  9990,2 52552  53.2146 146.1320 0002152 154.0367 206.0733 15.08313921 53568,6919.489,95.471,542.843,539.865,0.0
52552.0,STARLINK-3966,PAYLOAD,2023-04-28 18:59:19,15.08498675,0.0001074,53.214,144.3483,117.5536,242.5565,0.0011393,0.00017722,0.0,0 STARLINK-3966,1 52552U 22051V   23118.79119319  .00017722  00000-0  11393-2 0  9992,2 52552  53.2140 144.3483 0001074 117.5536 242.5565 15.08498675 53621,6918.924,95.459,541.532,540.046,0.0
52552.0,STARLINK-3966,PAYLOAD,2023-04-29 10:53:24,15.08603471,0.0001341,53.2143,141.375,87.3165,272.798,0.0067157,0.00107529,0.0,0 STARLINK-3966,1 52552U 22051V   23119.45376155  .00107529  00000-0  67157-2 0  9993,2 52552  53.2143 141.3750 0001341  87.3165 272.7980 15.08603471 53658,6918.603,95.453,541.396,539.541,0.0
52552.0,STARLINK-3966,PAYLOAD,2023-04-30 13:55:00,15.08795128,0.0001656,53.2141,136.3197,86.3738,273.7444,0.0025235,0.00040053,0.0,0 STARLINK-3966,1 52552U 22051V   23120.57986162  .00040053  00000-0  25235-2 0  9992,2 52552  53.2141 136.3197 0001656  86.3738 273.7444 15.08795128 53825,6918.018,95.44,541.028,538.737,0.0
52552.0,STARLINK-3966,PAYLOAD,2023-04-30 15:30:23,15.08775504,0.0001511,53.2148,136.0223,80.5466,279.5697,0.0018077,0.00028548,0.0,0 STARLINK-3966,1 52552U 22051V   23120.64610887  .00028548  00000-0  18077-2 0  9999,2 52552  53.2148 136.0223 0001511  80.5466 279.5697 15.08775504 53902,6918.078,95.442,540.988,538.897,0.0
52552.0,STARLINK-3966,PAYLOAD,2023-05-01 05:48:50,15.08820283,0.0001672,53.2141,133.3511,81.261,278.8571,-1.1903e-05,-4.77e-06,0.0,0 STARLINK-3966,1 52552U 22051V   23121.24225200 -.00000477  00000-0 -11903-4 0  9993,2 52552  53.2141 133.3511 0001672  81.2610 278.8571 15.08820283 53999,6917.941,95.439,540.962,538.649,0.0
52552.0,STARLINK-3966,PAYLOAD,2023-05-01 12:10:23,15.08821342,0.0001752,53.2142,132.1556,87.2533,272.8659,-5.8347e-05,-1.216e-05,0.0,0 STARLINK-3966,1 52552U 22051V   23121.50721244 -.00001216  00000-0 -58347-4 0  9996,2 52552  53.2142 132.1556 0001752  87.2533 272.8659 15.08821342 53960,6917.937,95.439,541.014,538.59,0.0
52552.0,STARLINK-3966,PAYLOAD,2023-05-02 07:15:01,15.08840807,0.0001637,53.2144,128.5875,86.0954,274.0226,0.00055876,8.616e-05,0.0,0 STARLINK-3966,1 52552U 22051V   23122.30209636  .00008616  00000-0  55876-3 0  9993,2 52552  53.2144 128.5875 0001637  86.0954 274.0226 15.08840807 54154,6917.878,95.438,540.875,538.61,0.0
52552.0,STARLINK-3966,PAYLOAD,2023-05-02 10:25:47,15.08841026,0.0001642,53.2141,127.993,80.5792,279.5386,0.0007465,0.00011613,0.0,0 STARLINK-3966,1 52552U 22051V   23122.43457863  .00011613  00000-0  74650-3 0  9996,2 52552  53.2141 127.9930 0001642  80.5792 279.5386 15.08841026 54107,6917.877,95.437,540.878,538.606,0.0
52552.0,STARLINK-3966,PAYLOAD,2023-05-03 10:16:34,15.08856547,0.0001669,53.2139,123.5323,82.8478,277.2704,0.00053502,8.241e-05,0.0,0 STARLINK-3966,1 52552U 22051V   23123.42817224  .00008241  00000-0  53502-3 0  9993,2 52552  53.2139 123.5323 0001669  82.8478 277.2704 15.08856547 54324,6917.83,95.437,540.849,538.54,0.0
52552.0,STARLINK-3966,PAYLOAD,2023-05-04 08:31:57,15.08860552,0.0001746,53.2142,119.3689,87.6839,272.4353,0.00030137,4.514e-05,0.0,0 STARLINK-3966,1 52552U 22051V   23124.35552163  .00004514  00000-0  30137-3 0  9992,2 52552  53.2142 119.3689 0001746  87.6839 272.4353 15.08860552 54469,6917.818,95.436,540.89,538.475,0.0
52552.0,STARLINK-3966,PAYLOAD,2023-05-05 08:22:45,15.08838971,0.0001785,53.2159,114.9087,87.7675,272.3522,-2.7475e-05,-7.25e-06,0.0,0 STARLINK-3966,1 52552U 22051V   23125.34913357 -.00000725  00000-0 -27475-4 0  9992,2 52552  53.2159 114.9087 0001785  87.7675 272.3522 15.08838971 54616,6917.884,95.438,540.983,538.514,0.0
52552.0,STARLINK-3966,PAYLOAD,2023-05-05 16:19:40,15.08845211,0.000172,53.2162,113.4215,88.4313,271.6876,1.3779e-05,-6.9e-07,0.0,0 STARLINK-3966,1 52552U 22051V   23125.68032764 -.00000069  00000-0  13779-4 0  9995,2 52552  53.2162 113.4215 0001720  88.4313 271.6876 15.08845211 54599,6917.864,95.437,540.919,538.54,0.0
52552.0,STARLINK-3966,PAYLOAD,2023-05-05 22:41:12,15.08849427,0.0001723,53.2161,112.2318,87.9722,272.1467,5.087e-05,5.22e-06,0.0,0 STARLINK-3966,1 52552U 22051V   23125.94528295  .00000522  00000-0  50870-4 0  9999,2 52552  53.2161 112.2318 0001723  87.9722 272.1467 15.08849427 54708,6917.852,95.437,540.909,538.525,0.0
52552.0,STARLINK-3966,PAYLOAD,2023-05-06 08:13:30,15.0885456,0.0001698,53.2162,110.4475,88.4004,271.7183,5.0633e-05,5.18e-06,0.0,0 STARLINK-3966,1 52552U 22051V   23126.34271779  .00000518  00000-0  50633-4 0  9998,2 52552  53.2162 110.4475 0001698  88.4004 271.7183 15.08854560 54695,6917.836,95.437,540.876,538.526,0.0
52552.0,STARLINK-3966,PAYLOAD,2023-05-07 04:53:32,15.08841555,0.0001458,53.2149,106.5805,89.3881,270.7278,0.00010006,1.305e-05,0.0,0 STARLINK-3966,1 52552U 22051V   23127.20384293  .00001305  00000-0  10006-3 0  9994,2 52552  53.2149 106.5805 0001458  89.3881 270.7278 15.08841555 54896,6917.876,95.437,540.749,538.732,0.0
52552.0,STARLINK-3966,PAYLOAD,2023-05-07 16:01:13,15.08842176,0.0001491,53.2151,104.499,88.5054,271.6109,7.741e-05,9.44e-06,0.0,0 STARLINK-3966,1 52552U 22051V   23127.66752273  .00000944  00000-0  77410-4 0  9992,2 52552  53.2151 104.4990 0001491  88.5054 271.6109 15.08842176 54894,6917.874,95.437,540.77,538.707,0.0
52552.0,STARLINK-3966,PAYLOAD,2023-05-08 04:44:19,15.08842344,0.0001454,53.2156,102.1188,98.4348,261.6809,-2.5053e-05,-6.87e-06,0.0,0 STARLINK-3966,1 52552U 22051V   23128.19744425 -.00000687  00000-0 -25053-4 0  9993,2 52552  53.2156 102.1188 0001454  98.4348 261.6809 15.08842344 54970,6917.873,95.437,540.744,538.732,0.0
52552.0,STARLINK-3966,PAYLOAD,2023-05-09 04:35:05,15.08842811,0.0001632,53.2171,97.6584,100.1168,260.0008,4.7508e-05,4.68e-06,0.0,0 STARLINK-3966,1 52552U 22051V   23129.19104149  .00000468  00000-0  47508-4 0  9991,2 52552  53.2171  97.6584 0001632 100.1168 260.0008 15.08842811 55125,6917.872,95.437,540.866,538.608,0.0
52552.0,STARLINK-3966,PAYLOAD,2023-05-10 04:25:53,15.08837943,0.0001321,53.2174,93.2029,88.2254,271.8889,0.00011187,1.493e-05,0.0,0 STARLINK-3966,1 52552U 22051V   23130.18464230  .00001493  00000-0  11187-3 0  9994,2 52552  53.2174  93.2029 0001321  88.2254 271.8889 15.08837943 55274,6917.887,95.438,540.666,538.838,0.0
52552.0,STARLINK-3966,PAYLOAD,2023-05-11 04:16:40,15.08843447,0.0001366,53.2172,88.7427,87.1572,272.9576,4.0501e-05,3.57e-06,0.0,0 STARLINK-3966,1 52552U 22051V   23131.17824422  .00000357  00000-0  40501-4 0  9998,2 52552  53.2172  88.7427 0001366  87.1572 272.9576 15.08843447 55421,6917.87,95.437,540.68,538.79,0.0
52552.0,STARLINK-3966,PAYLOAD,2023-05-12 04:07:28,15.08829884,0.0001176,53.218,84.2832,96.7409,263.3717,-8.9005e-07,-3.02e-06,0.0,0 STARLINK-3966,1 52552U 22051V   23132.17185732 -.00000302  00000-0 -89005-6 0  9999,2 52552  53.2180  84.2832 0001176  96.7409 263.3717 15.08829884 55571,6917.911,95.438,540.59,538.963,0.0
52552.0,STARLINK-3966,PAYLOAD,2023-05-13 03:58:13,15.08865561,0.000148,53.2165,79.8227,108.8193,251.2959,-5.9676e-05,-1.238e-05,0.0,0 STARLINK-3966,1 52552U 22051V   23133.16543720 -.00001238  00000-0 -59676-4 0  9992,2 52552  53.2165  79.8227 0001480 108.8193 251.2959 15.08865561 55795,6917.802,95.436,540.691,538.643,0.0
52552.0,STARLINK-3966,PAYLOAD,2023-05-14 03:49:02,15.08833363,0.0001307,53.2178,75.3584,81.5547,278.5594,5.9226e-05,6.55e-06,0.0,0 STARLINK-3966,1 52552U 22051V   23134.15905934  .00000655  00000-0  59226-4 0  9992,2 52552  53.2178  75.3584 0001307  81.5547 278.5594 15.08833363 55943,6917.901,95.438,540.67,538.862,0.0
52552.0,STARLINK-3966,PAYLOAD,2023-05-15 02:04:25,15.08853494,0.0001203,53.2178,71.1951,94.7785,265.3345,2.8562e-05,1.67e-06,0.0,0 STARLINK-3966,1 52552U 22051V   23135.08640580  .00000167  00000-0  28562-4 0  9995,2 52552  53.2178  71.1951 0001203  94.7785 265.3345 15.08853494 56081,6917.839,95.437,540.536,538.872,0.0
52552.0,STARLINK-3966,PAYLOAD,2023-05-15 13:12:07,15.08850955,0.0001191,53.2175,69.1137,96.5875,263.5252,3.3244e-05,2.41e-06,0.0,0 STARLINK-3966,1 52552U 22051V   23135.55008297  .00000241  00000-0  33244-4 0  9996,2 52552  53.2175  69.1137 0001191  96.5875 263.5252 15.08850955 56083,6917.847,95.437,540.536,538.888,0.0
52552.0,STARLINK-3966,PAYLOAD,2023-05-16 01:55:13,15.0883517,0.0001516,53.2189,66.7335,98.0798,262.0366,4.9068e-05,4.93e-06,0.0,0 STARLINK-3966,1 52552U 22051V   23136.08001609  .00000493  00000-0  49068-4 0  9995,2 52552  53.2189  66.7335 0001516  98.0798 262.0366 15.08835170 56232,6917.895,95.438,540.809,538.711,0.0
52552.0,STARLINK-3966,PAYLOAD,2023-05-16 19:24:27,15.08845025,0.0001728,53.2199,63.463,101.8096,258.309,-5.5702e-05,-1.175e-05,0.0,0 STARLINK-3966,1 52552U 22051V   23136.80865428 -.00001175  00000-0 -55702-4 0  9994,2 52552  53.2199  63.4630 0001728 101.8096 258.3090 15.08845025 56270,6917.865,95.437,540.925,538.535,0.0
52552.0,STARLINK-3966,PAYLOAD,2023-05-17 01:45:59,15.08848099,0.0001263,53.2179,62.2754,91.0083,269.1054,-7.9618e-06,-4.15e-06,0.0,0 STARLINK-3966,1 52552U 22051V   23137.07360934 -.00000415  00000-0 -79618-5 0  9995,2 52552  53.2179  62.2754 0001263  91.0083 269.1054 15.08848099 56388,6917.856,95.437,540.594,538.847,0.0
